STARLINK-34755          
1 64940U 25158J   25217.16667824 -.01745607  00000+0 -11697-1 0  9997
2 64940  97.5973  78.6310 0001595  68.6187 344.6103 15.78029246  2586
STARLINK-34740          
1 64941U 25158K   25217.16667824 -.01746504  00000+0 -11704-1 0  9994
2 64941  97.5976  78.6319 0001544  77.1896 337.9644 15.78029477  2586
STARLINK-34742          
1 64942U 25158L   25217.16667824 -.01739933  00000+0 -11657-1 0  9990
2 64942  97.5974  78.6331 0001504  75.0518 342.0231 15.78024475  2642
STARLINK-34719          
1 64943U 25158M   25217.16667824 -.01776718  00000+0 -11910-1 0  9995
2 64943  97.5975  78.6340 0001437  53.3114   5.6297 15.78075492  2649
STARLINK-34373          
1 64944U 25158N   25217.16667824 -.01757014  00000+0 -11773-1 0  9991
2 64944  97.5973  78.6344 0001860  56.5270   4.3643 15.78046209  2588
STARLINK-34758          
1 64945U 25158P   25217.16667824 -.01750708  00000+0 -11729-1 0  9996
2 64945  97.5972  78.6353 0001871  62.6859   0.1367 15.78038706  2581
STARLINK-34753          
1 64946U 25158Q   25217.16667824 -.01763498  00000+0 -11824-1 0  9993
2 64946  97.5972  78.6359 0001388  60.6549   4.0828 15.78048635  2582
STARLINK-34747          
1 64947U 25158R   25217.16667824 -.01773690  00000+0 -11898-1 0  9990
2 64947  97.5975  78.6372 0001933  75.6386 351.0252 15.78048844  2647
STARLINK-34630          
1 64948U 25158S   25217.16667824 -.01743173  00000+0 -11681-1 0  9994
2 64948  97.5972  78.6375 0001648  61.2509   7.3480 15.78023911  2584
STARLINK-34689          
1 64949U 25158T   25216.91668981 -.00217670  00000+0 -13390-2 0  9999
2 64949  97.5970  78.3644 0001741  86.3388   5.3620 15.77707717  2616
STARLINK-34586          
1 64950U 25158U   25217.16667824 -.01780237  00000+0 -11943-1 0  9990
2 64950  97.5971  78.6395 0002054  74.8329 357.5913 15.78056444  2588
STARLINK-34738          
1 64951U 25158V   25217.16667824 -.01756351  00000+0 -11771-1 0  9990
2 64951  97.5974  78.6404 0001938  77.1054 357.2436 15.78039520  2587
STARLINK-34744          
1 64952U 25158W   25217.16667824 -.01771393  00000+0 -11881-1 0  9996
2 64952  97.5971  78.6422 0001914  70.4928   7.6936 15.78048146  2580
STARLINK-34701          
1 64953U 25158X   25217.16667824 -.01761629  00000+0 -11808-1 0  9997
2 64953  97.5974  78.6417 0001981  78.8653 357.4036 15.78044874  2580
STARLINK-34761          
1 64954U 25158Y   25217.16667824 -.01766355  00000+0 -11845-1 0  9990
2 64954  97.5976  78.6434 0001663  61.6640  18.4448 15.78046794  2589
STARLINK-34732          
1 64955U 25158Z   25217.16667824 -.01775536  00000+0 -11914-1 0  9999
2 64955  97.5976  78.6443 0001469  65.5256  16.5005 15.78050856  2582
HULIANWANG DIGUI 5A     
1 64956U 25159A   25216.94754566  .00000132  00000+0  13541-3 0  9996
2 64956  86.4951  29.8798 0008975 192.6640 167.4294 13.68385929  1159
HULIANWANG DIGUI 5B     
1 64957U 25159B   25215.92332787  .00000154  00000+0  15997-3 0  9992
2 64957  86.4970  30.2561 0008382 194.4817 165.6103 13.68770702  1003
HULIANWANG DIGUI 5C     
1 64958U 25159C   25215.92235774  .00000151  00000+0  15578-3 0  9993
2 64958  86.4914  30.2453 0008059 190.2028 169.8969 13.68946263  1004
HULIANWANG DIGUI 5D     
1 64959U 25159D   25216.94525388  .00000116  00000+0  11572-3 0  9991
2 64959  86.4971  29.8823 0007626 181.1055 179.0089 13.68745557  1156
HULIANWANG DIGUI 5E     
1 64960U 25159E   25215.92118010  .00000070  00000+0  62145-4 0  9992
2 64960  86.4949  30.2508 0007376 182.7476 177.3644 13.69164755  1014
CZ-6A R/B               
1 64961U 25159F   25216.93723444  .00000083  00000+0  46568-4 0  9993
2 64961  86.5052  29.7614 0104873  89.8668 271.4522 13.94024000  1165
KUNPENG-03              
1 64962U 25160A   25216.92851992  .00017244  00000+0  77682-3 0  9992
2 64962  97.3995 291.4787 0010642 242.8486 117.1665 15.21071705  1025
SQX-1 R/B               
1 64963U 25160B   25216.95050582  .00051902  29175-5  31133-3 0  9992
2 64963  97.4412 291.9488 0167612 329.6242  29.5382 15.60776084  1069
HULIANWANG DIGUI 6A     
1 65043U 25162A   25216.91522658 -.00000056  00000+0  58735-4 0  9991
2 65043  50.0021 352.3841 0008174 284.8104  75.1895 14.05832757   783
HULIANWANG DIGUI 6B     
1 65044U 25162B   25216.91500448 -.00000035  00000+0  71510-4 0  9998
2 65044  50.0030 352.3840 0006924 278.9343  81.0778 14.05895444   792
HULIANWANG DIGUI 6C     
1 65045U 25162C   25216.91462430 -.00000023  00000+0  78610-4 0  9992
2 65045  49.9993 352.3780 0007391 286.6352  73.3741 14.05990228   796
HULIANWANG DIGUI 6D     
1 65046U 25162D   25216.91437839 -.00000034  00000+0  71563-4 0  9990
2 65046  50.0012 352.3791 0006207 284.4504  75.5713 14.06044188   793
HULIANWANG DIGUI 6E     
1 65047U 25162E   25216.91412510  .00000021  00000+0  10488-3 0  9993
2 65047  50.0039 352.3806 0007820 293.4292  66.5791 14.06113628   798
HULIANWANG DIGUI 6F     
1 65048U 25162F   25216.91362022  .00000001  00000+0  92666-4 0  9993
2 65048  50.0071 352.3817 0005826 291.7683  68.2602 14.06240199   790
HULIANWANG DIGUI 6G     
1 65049U 25162G   25216.91345705 -.00000016  00000+0  82162-4 0  9990
2 65049  50.0088 352.3827 0006961 297.2417  62.7779 14.06283530   797
HULIANWANG DIGUI 6H     
1 65050U 25162H   25216.91306640 -.00000008  00000+0  86999-4 0  9990
2 65050  50.0054 352.3769 0007133 302.3714  57.6500 14.06378753   794
HULIANWANG DIGUI 6J     
1 65051U 25162J   25216.91288970 -.00000030  00000+0  73934-4 0  9996
2 65051  50.0064 352.3772 0005624 299.1942  60.8401 14.06425905   797
CZ-8A R/B               
1 65052U 25162K   25216.88970599 -.00000427  00000+0 -91490-4 0  9996
2 65052  50.0050 351.5757 0118799 102.8886 258.5331 14.30548375   806
NISAR                   
1 65053U 25163A   25216.94859244  .00000219  00000+0  74095-4 0  9997
2 65053  98.4437  43.7993 0012300 253.6713 106.3126 14.45884512   780
GSLV R/B                
1 65054U 25163B   25216.94260600  .00000170  00000+0  58244-4 0  9994
2 65054  98.4379  43.7996 0010801 292.0976  67.9069 14.47489092   785
PRSS-1                  
1 65055U 25164A   25216.83770823  .00003995  00000+0  28632-3 0  9992
2 65055  41.1303 271.3804 0006333 266.6165  93.3924 15.05297786   692
CREW DRAGON 11          
1 65077U 25166A   25216.88307209  .00003454  00000+0  67688-4 0  9992
2 65077  51.6362  65.7123 0001818 143.6625 298.7323 15.50331059522497
2025-168A               
1 65106U 25168A   25216.48815924 -.00000151  00000+0  00000+0 0  9993
2 65106  50.0209  57.8360 0027726 230.9673 190.5476 14.02667253    07
HULIANWANG DIGUI 7B     
1 65107U 25168B   25216.55701984 -.00000149  00000+0  00000+0 0  9999
2 65107  50.0034  57.5348 0010250 225.8777 182.3987 13.98075879    17
HULIANWANG DIGUI 7C     
1 65108U 25168C   25216.56546348 -.00000149  00000+0  00000+0 0  9992
2 65108  50.0105  57.5268 0012549 203.1654 247.6998 13.98108267    19
HULIANWANG DIGUI 7D     
1 65109U 25168D   25216.56549769 -.00000149  00000+0  00000+0 0  9993
2 65109  50.0004  57.4995 0008949 223.6591 227.3643 13.98101226    10
HULIANWANG DIGUI 7E     
1 65110U 25168E   25216.56545882 -.00000149  00000+0  00000+0 0  9997
2 65110  50.0014  57.5467 0014633 209.0478 241.8334 13.98096033    14
HULIANWANG DIGUI 7F     
1 65111U 25168F   25216.56549190 -.00000149  00000+0  00000+0 0  9994
2 65111  50.0031  57.5538 0013258 216.7360 234.3291 13.98199268    13
HULIANWANG DIGUI 7G     
1 65112U 25168G   25216.56545866 -.00000149  00000+0  00000+0 0  9991
2 65112  50.0031  57.5207 0010821 220.0867 230.8540 13.98407203    19
HULIANWANG DIGUI 7H     
1 65113U 25168H   25216.56556465 -.00000149  00000+0  00000+0 0  9999
2 65113  50.0040  57.5046 0007455 228.9233 222.5987 13.98606854    10
2025-168K               
1 65115U 25168K   25216.49626206 -.00000157  00000+0  00000+0 0  9993
2 65115  49.9744  57.8099 0077616 113.6434 350.9045 14.15617843    11
